NORAD_CAT_ID,OBJECT_NAME,OBJECT_TYPE,EPOCH,MEAN_MOTION,ECCENTRICITY,INCLINATION,RA_OF_ASC_NODE,ARG_OF_PERICENTER,MEAN_ANOMALY,BSTAR,MEAN_MOTION_DOT,MEAN_MOTION_DDOT,TLE_LINE0,TLE_LINE1,TLE_LINE2,SEMIMAJOR_AXIS,PERIOD,APOGEE,PERIGEE,DECAYED
53150.0,STARLINK-4038,PAYLOAD,2023-01-02 15:06:44,15.08838278,0.0002918999999999,53.2173,340.8001,29.7716,330.3441,-1.0395999999999997e-05,-4.54e-06,0.0,0 STARLINK-4038,1 53150U 22083U   23002.62967905 -.00000454  00000-0 -10396-4 0  9998,2 53150  53.2173 340.8001 0002919  29.7716 330.3441 15.08838278 26552,6917.886,95.438,541.77,537.731,0.0
53150.0,STARLINK-4038,PAYLOAD,2023-01-02 21:28:17,15.0883691,0.0002915,53.2174,339.6105,29.097,331.0185,0.00013298,1.828e-05,0.0,0 STARLINK-4038,1 53150U 22083U   23002.89464148  .00001828  00000-0  13298-3 0  9995,2 53150  53.2174 339.6105 0002915  29.0970 331.0185 15.08836910 25963,6917.89,95.438,541.771,537.738,0.0
53150.0,STARLINK-4038,PAYLOAD,2023-01-03 02:14:26,15.08833615,0.0002743,53.217,338.7188,29.9456,330.1693,0.00028535,4.255e-05,0.0,0 STARLINK-4038,1 53150U 22083U   23003.09336654  .00004255  00000-0  28535-3 0  9995,2 53150  53.2170 338.7188 0002743  29.9456 330.1693 15.08833615 26624,6917.9,95.438,541.6619999999998,537.867,0.0
53150.0,STARLINK-4038,PAYLOAD,2023-01-03 10:11:22,15.08845893,0.0002728999999999,53.2165,337.2315,28.5924,331.5217,0.00057596,8.892e-05,0.0,0 STARLINK-4038,1 53150U 22083U   23003.42456639  .00008892  00000-0  57596-3 0  9998,2 53150  53.2165 337.2315 0002729  28.5924 331.5217 15.08845893 26047,6917.861999999999,95.437,541.615,537.839,0.0
53150.0,STARLINK-4038,PAYLOAD,2023-01-04 10:02:09,15.08857028,0.0002728999999999,53.2162,332.771,31.5553,328.5603,0.00067337,0.0001044999999999,0.0,0 STARLINK-4038,1 53150U 22083U   23004.41816289  .00010450  00000-0  67337-3 0  9996,2 53150  53.2162 332.7710 0002729  31.5553 328.5603 15.08857028 26829,6917.828,95.436,541.581,537.805,0.0
53150.0,STARLINK-4038,PAYLOAD,2023-01-05 06:42:09,15.08863408,0.0002783,53.2162,328.9051,33.4172,326.6995,0.00040693,6.198e-05,0.0,0 STARLINK-4038,1 53150U 22083U   23005.27927208  .00006198  00000-0  40693-3 0  9995,2 53150  53.2162 328.9051 0002783  33.4172 326.6995 15.08863408 26958,6917.809,95.436,541.599,537.749,0.0
53150.0,STARLINK-4038,PAYLOAD,2023-01-05 14:39:04,15.08868889,0.0002844,53.2161,327.4182,31.7603,328.356,0.00043177,6.596e-05,0.0,0 STARLINK-4038,1 53150U 22083U   23005.61046613  .00006596  00000-0  43177-3 0  9997,2 53150  53.2161 327.4182 0002844  31.7603 328.3560 15.08868889 26375,6917.792,95.436,541.625,537.69,0.0
53150.0,STARLINK-4038,PAYLOAD,2023-01-06 06:32:55,15.08853514,0.0002164,53.2162,324.4445,15.5369,344.569,8.204299999999999e-05,1.018e-05,0.0,0 STARLINK-4038,1 53150U 22083U   23006.27286187  .00001018  00000-0  82043-4 0  9992,2 53150  53.2162 324.4445 0002164  15.5369 344.5690 15.08853514 27104,6917.839,95.437,541.201,538.207,0.0
53150.0,STARLINK-4038,PAYLOAD,2023-01-07 03:12:57,15.08818603,0.0002598,53.217,320.5771,29.794,330.3199,0.00027725,4.124e-05,0.0,0 STARLINK-4038,1 53150U 22083U   23007.13400169  .00004124  00000-0  27725-3 0  9992,2 53150  53.2170 320.5771 0002598  29.7940 330.3199 15.08818603 27236,6917.946,95.439,541.6080000000002,538.014,0.0
53150.0,STARLINK-4038,PAYLOAD,2023-01-07 06:23:44,15.0882801,0.0002634999999999,53.2165,319.9825,31.2242,328.8906,0.00028452,4.241e-05,0.0,0 STARLINK-4038,1 53150U 22083U   23007.26648151  .00004241  00000-0  28452-3 0  9999,2 53150  53.2165 319.9825 0002635  31.2242 328.8906 15.08828010 26620,6917.917,95.438,541.605,537.9590000000002,0.0
53150.0,STARLINK-4038,PAYLOAD,2023-01-07 20:42:12,15.08832126,0.0002788999999999,53.2153,317.3077,34.4788,325.6385,0.00059249,9.152e-05,0.0,0 STARLINK-4038,1 53150U 22083U   23007.86264924  .00009152  00000-0  59249-3 0  9991,2 53150  53.2153 317.3077 0002789  34.4788 325.6385 15.08832126 26717,6917.904,95.438,541.6990000000002,537.84,0.0
53150.0,STARLINK-4038,PAYLOAD,2023-01-08 06:14:31,15.08836866,0.0002881,53.2157,315.5234,35.6248,324.4936,0.00049558,7.607e-05,0.0,0 STARLINK-4038,1 53150U 22083U   23008.26009052  .00007607  00000-0  49558-3 0  9990,2 53150  53.2157 315.5234 0002881  35.6248 324.4936 15.08836866 27404,6917.89,95.438,541.748,537.762,0.0
53150.0,STARLINK-4038,PAYLOAD,2023-01-09 12:26:51,15.08845016,0.0002818,53.2158,309.8747,33.2042,326.9126,0.00028798,4.299e-05,0.0,0 STARLINK-4038,1 53150U 22083U   23009.51865015  .00004299  00000-0  28798-3 0  9995,2 53150  53.2158 309.8747 0002818  33.2042 326.9126 15.08845016 27591,6917.865,95.437,541.68,537.781,0.0
53150.0,STARLINK-4038,PAYLOAD,2023-01-10 05:56:05,15.08842388,0.0002753,53.2175,306.6052,29.8742,330.2407,0.00012087,1.636e-05,0.0,0 STARLINK-4038,1 53150U 22083U   23010.24728982  .00001636  00000-0  12087-3 0  9994,2 53150  53.2175 306.6052 0002753  29.8742 330.2407 15.08842388 27702,6917.873000000001,95.437,541.643,537.8340000000002,0.0
53150.0,STARLINK-4038,PAYLOAD,2023-01-10 12:17:38,15.08838982,0.0002784,53.2173,305.415,27.7982,332.3158,-1.9344e-05,-5.96e-06,0.0,0 STARLINK-4038,1 53150U 22083U   23010.51225044 -.00000596  00000-0 -19344-4 0  9995,2 53150  53.2173 305.4150 0002784  27.7982 332.3158 15.08838982 27119,6917.884,95.438,541.674,537.823,0.0
53150.0,STARLINK-4038,PAYLOAD,2023-01-11 13:43:47,15.088584,0.0002727,53.2167,300.6578,32.8089,327.3072,0.00030005,4.493e-05,0.0,0 STARLINK-4038,1 53150U 22083U   23011.57208075  .00004493  00000-0  30005-3 0  9991,2 53150  53.2167 300.6578 0002727  32.8089 327.3072 15.08858400 27278,6917.824000000001,95.436,541.576,537.803,0.0
53150.0,STARLINK-4038,PAYLOAD,2023-01-11 20:05:20,15.08851386,0.0002673,53.2162,299.4671,25.7158,334.3967,0.00019226,2.774e-05,0.0,0 STARLINK-4038,1 53150U 22083U   23011.83704008  .00002774  00000-0  19226-3 0  9999,2 53150  53.2162 299.4671 0002673  25.7158 334.3967 15.08851386 27312,6917.846,95.437,541.56,537.861,0.0
53150.0,STARLINK-4038,PAYLOAD,2023-01-12 02:26:52,15.08851995,0.0002704,53.2168,298.2774,26.1573,333.9555,0.00016983,2.416e-05,0.0,0 STARLINK-4038,1 53150U 22083U   23012.10199546  .00002416  00000-0  16983-3 0  9995,2 53150  53.2168 298.2774 0002704  26.1573 333.9555 15.08851995 27987,6917.844,95.437,541.5790000000002,537.8380000000002,0.0
53150.0,STARLINK-4038,PAYLOAD,2023-01-12 19:56:10,15.08808841,0.0002611,53.218,295.0076,33.7457,326.3701,-0.0001783,-3.123e-05,0.0,0 STARLINK-4038,1 53150U 22083U   23012.83067772 -.00003123  00000-0 -17830-3 0  9990,2 53150  53.2180 295.0076 0002611  33.7457 326.3701 15.08808841 28097,6917.976,95.44,541.6469999999998,538.034,0.0
53150.0,STARLINK-4038,PAYLOAD,2023-01-13 00:42:19,15.08815325,0.0002406,53.2174,294.1145,20.3176,339.7911,-9.1096e-05,-1.737e-05,0.0,0 STARLINK-4038,1 53150U 22083U   23013.02939322 -.00001737  00000-0 -91096-4 0  9997,2 53150  53.2174 294.1145 0002406  20.3176 339.7911 15.08815325 28129,6917.956,95.439,541.485,538.156,0.0
53150.0,STARLINK-4038,PAYLOAD,2023-01-13 02:17:42,15.08829188,0.0002465,53.2174,293.8166,32.4769,327.6374,-0.00010787,-2.004e-05,0.0,0 STARLINK-4038,1 53150U 22083U   23013.09562659 -.00002004  00000-0 -10787-3 0  9994,2 53150  53.2174 293.8166 0002465  32.4769 327.6374 15.08829188 28137,6917.913000000001,95.438,541.484,538.073,0.0
53150.0,STARLINK-4038,PAYLOAD,2023-01-13 11:50:00,15.0883209,0.0002444,53.2174,292.033,33.7614,326.3533,-7.2504e-05,-1.442e-05,0.0,0 STARLINK-4038,1 53150U 22083U   23013.49306603 -.00001442  00000-0 -72504-4 0  9994,2 53150  53.2174 292.0330 0002444  33.7614 326.3533 15.08832090 27566,6917.905,95.438,541.46,538.0790000000001,0.0
53150.0,STARLINK-4038,PAYLOAD,2023-01-13 21:22:18,15.08844361,0.0002531,53.2169,290.2486,36.2876,323.8288,3.2212e-05,2.24e-06,0.0,0 STARLINK-4038,1 53150U 22083U   23013.89049627  .00000224  00000-0  32212-4 0  9995,2 53150  53.2169 290.2486 0002531  36.2876 323.8288 15.08844361 27627,6917.866999999999,95.437,541.4830000000001,537.981,0.0
53150.0,STARLINK-4038,PAYLOAD,2023-01-14 03:43:50,15.08858061,0.0002768,53.2183,289.0585,28.8537,331.2608,0.00016194,2.291e-05,0.0,0 STARLINK-4038,1 53150U 22083U   23014.15544295  .00002291  00000-0  16194-3 0  9992,2 53150  53.2183 289.0585 0002768  28.8537 331.2608 15.08858061 28297,6917.825,95.436,541.605,537.775,0.0
53150.0,STARLINK-4038,PAYLOAD,2023-01-14 11:40:46,15.08847112,0.000271,53.2168,287.5724,45.1217,314.9995,-7.489199999999999e-06,-4.08e-06,0.0,0 STARLINK-4038,1 53150U 22083U   23014.48665363 -.00000408  00000-0 -74892-5 0  9999,2 53150  53.2168 287.5724 0002710  45.1217 314.9995 15.08847112 28340,6917.859,95.437,541.5980000000001,537.849,0.0
53150.0,STARLINK-4038,PAYLOAD,2023-01-15 00:23:52,15.08828852,0.0002121999999999,53.2163,285.194,40.6839,319.4311,0.00034107,5.143e-05,0.0,0 STARLINK-4038,1 53150U 22083U   23015.01658039  .00005143  00000-0  34107-3 0  9993,2 53150  53.2163 285.1940 0002122  40.6839 319.4311 15.08828852 28427,6917.914000000001,95.438,541.247,538.311,0.0
53150.0,STARLINK-4038,PAYLOAD,2023-01-15 21:03:52,15.08848426,0.0002151999999999,53.2167,281.328,45.2712,314.8455,9.4603e-05,1.218e-05,0.0,0 STARLINK-4038,1 53150U 22083U   23015.87769634  .00001218  00000-0  94603-4 0  9998,2 53150  53.2167 281.3280 0002152  45.2712 314.8455 15.08848426 27921,6917.855,95.437,541.2080000000001,538.231,0.0
53150.0,STARLINK-4038,PAYLOAD,2023-01-16 00:14:38,15.0885641,0.0001995,53.2172,280.7339,39.8872,320.2266,0.00011598,1.559e-05,0.0,0 STARLINK-4038,1 53150U 22083U   23016.01017230  .00001559  00000-0  11598-3 0  9992,2 53150  53.2172 280.7339 0001995  39.8872 320.2266 15.08856410 28570,6917.83,95.437,541.075,538.315,0.0
53150.0,STARLINK-4038,PAYLOAD,2023-01-16 05:00:46,15.08874557,0.0001681,53.2172,279.8397,45.0839,315.0289,0.00031562,4.743e-05,0.0,0 STARLINK-4038,1 53150U 22083U   23016.20887704  .00004743  00000-0  31562-3 0  9995,2 53150  53.2172 279.8397 0001681  45.0839 315.0289 15.08874557 28600,6917.775,95.435,540.803,538.477,0.0
